HST                     
1 20580U 90037B   25331.24632759  .00007676  00000+0  26723-3 0  9994
2 20580  28.4702  17.9168 0002069  75.4692 284.6133 15.27730621757620
POLAR                   
1 23802U 96013A   25322.76785454  .00000092  00000+0  00000+0 0  9993
2 23802  79.6081 229.4139 6261894 216.1974  78.1071  1.29845965142127
SWAS                    
1 25560U 98071A   25331.27417457  .00005044  00000+0  33568-3 0  9994
2 25560  69.8977  27.5525 0007661 232.0224 128.0248 15.07758569466810
CXO                     
1 25867U 99040B   25333.39454924  .00000722  00000+0  00000+0 0  9995
2 25867  52.7584 123.0489 8164697 310.7158   0.2585  0.37803381 16565
XMM-NEWTON              
1 25989U 99066A   25332.90598036  .00000112  00000+0  00000+0 0  9990
2 25989  65.5048 285.6305 4750610  68.4163   0.2424  0.50129328 22009
TERRA                   
1 25994U 99068A   25331.25165969  .00000588  00000+0  12913-3 0  9997
2 25994  97.9770  23.5025 0003205 129.3436 272.9452 14.60925443380128
CLUSTER II-FM7 (SAMBA)  
1 26410U 00041A   25332.27821104  .00002006  00000+0  00000+0 0  9994
2 26410 147.3129  23.5739 8729424 239.2494   0.3687  0.44796199 19418
CLUSTER II-FM8 (TANGO)  
1 26464U 00045B   25333.01425608  .00002064  00000+0  00000+0 0  9993
2 26464 147.6375  24.2817 8737763 239.8126   0.3277  0.44424817 19400
ODIN                    
1 26702U 01007A   25331.02656828  .00033442  00000+0  59677-3 0  9998
2 26702  97.4253 358.4698 0004035 149.9294 210.2189 15.49993041357892
TIMED                   
1 26998U 01055B   25331.18234473  .00001930  00000+0  18184-3 0  9998
2 26998  74.0688 281.5619 0001722 234.4178 125.6846 14.94599317300638
CORIOLIS                
1 27640U 03001A   25331.02816957  .00000170  00000+0  10044-3 0  9994
2 27640  98.7146 336.0076 0015065  76.3366 283.9487 14.19863998185530
SORCE                   
1 27651U 03004A   25331.21437291  .00004302  00000+0  33204-3 0  9994
2 27651  39.9921 332.7712 0015605  35.3035 324.8789 15.02097369241502
MOST                    
1 27843U 03031D   25331.02826138  .00000109  00000+0  70041-4 0  9990
2 27843  98.7072 336.5730 0010857 113.8459 246.3858 14.21263605161990
SCISAT 1                
1 27858U 03036A   25331.15578246  .00000945  00000+0  12635-3 0  9991
2 27858  73.9300 212.6565 0008173 314.6577  45.3933 14.81081571201537
SWIFT                   
1 28485U 04047A   25331.09724447  .00045166  00000+0  78563-3 0  9996
2 28485  20.5546 281.8588 0003825  44.7028 315.3723 15.49005810155282
HINODE (SOLAR-B)        
1 29479U 06041A   25331.01565958  .00000930  00000+0  16943-3 0  9992
2 29479  98.0660 345.0851 0016961 205.6498 154.3867 14.68262376 25203
SHIJIAN-6 02A (SJ-6 02A)
1 29505U 06046A   25331.26110250  .00008106  00000+0  45032-3 0  9999
2 29505  97.6642   5.9053 0004684 108.5403 251.6338 15.13970063 41684
SHIJIAN-6 02B (SJ-6 02B)
1 29506U 06046B   25331.28331681  .00002012  00000+0  16437-3 0  9992
2 29506  97.6876 357.0478 0015210  24.8211 335.3741 15.00448033 40455
FGRST (GLAST)           
1 33053U 08029A   25330.81085661  .00003859  00000+0  14805-3 0  9996
2 33053  25.5805 168.2310 0008967  99.4166 260.7385 15.22447973964944
SDO                     
1 36395U 10005A   25330.32614044 -.00000049  00000+0  00000+0 0  9991
2 36395  34.2253  89.4396 0001477 145.3126 206.3848  1.00270776 58023
CRYOSAT 2               
1 36508U 10013A   25331.28375685  .00000230  00000+0  56258-4 0  9999
2 36508  92.0264 228.4280 0002195  90.1595 269.9864 14.51902355828781
X-SAT                   
1 37389U 11015C   25331.23909083  .00000187  00000+0  97087-4 0  9996
2 37389  98.3297 313.1619 0013338 212.0816 147.9554 14.25119807758915
GCOM-W1 (SHIZUKU)       
1 38337U 12025A   25331.29287245  .00000790  00000+0  18552-3 0  9996
2 38337  98.2193 269.7034 0001626  77.0458  43.6328 14.57088707719634
NUSTAR                  
1 38358U 12031A   25331.33336806  .00005759  00000+0  32653-3 0  9997
2 38358   6.0257 105.4403 0008863 344.5533 293.6988 15.06130272  1304
NEOSSAT                 
1 39089U 13009D   25330.97282739  .00000264  00000+0  10605-3 0  9998
2 39089  98.4077 150.8920 0011934 125.9733 234.2561 14.35717637667724
BRITE-AUSTRIA           
1 39091U 13009F   25331.00163272  .00000288  00000+0  11287-3 0  9999
2 39091  98.3890 150.5274 0011185 120.7584 239.4706 14.36422108668022
IRIS                    
1 39197U 13033A   25330.96843959  .00002433  00000+0  28912-3 0  9991
2 39197  97.9404 165.8009 0023436 260.2311  99.6257 14.85186935670355
HISAKI (SPRINT-A)       
1 39253U 13049A   25330.51919102  .00000147  00000+0  10908-3 0  9992
2 39253  29.7176 170.3669 0136787 173.9150 186.3114 13.55518554603900
CASSIOPE                
1 39265U 13055A   25331.26983567  .00047330 -35232-6  64095-3 0  9995
2 39265  80.9292 309.2688 0349042  16.4212 344.7979 15.09603290637038
STSAT-3                 
1 39422U 13066G   25331.26261083  .00004748  00000+0  37365-3 0  9997
2 39422  97.5967 299.9684 0015766   4.2364 355.8991 15.01201169653893
SWARM B                 
1 39451U 13067A   25331.26317476  .00004523  00000+0  17033-3 0  9999
2 39451  87.7453  43.5465 0003276  94.8844 265.2779 15.26841636652418
SWARM A                 
1 39452U 13067B   25331.22197933  .00011170  00000+0  22844-3 0  9992
2 39452  87.3360 130.9764 0002389  86.4140 273.7392 15.45981053674996
SWARM C                 
1 39453U 13067C   25331.22185726  .00011267  00000+0  23038-3 0  9993
2 39453  87.3357 129.5620 0002365  86.3216 273.8313 15.45986734674956
BRITE-CA1 (TORONTO)     
1 40020U 14033L   25331.27932167  .00001731  00000+0  26988-3 0  9995
2 40020  97.9484  99.3544 0078902 202.5091 157.2649 14.72132412612503
OCO 2                   
1 40059U 14035A   25331.26666780  .00000672  00000+0  15918-3 0  9997
2 40059  98.2194 270.4222 0001152  61.2216 298.9098 14.57131550606648
BRITE-PL2 (HEWELIUSZ)   
1 40119U 14049B   25331.25827152  .00002879  00000+0  27819-3 0  9994
2 40119  97.8993  77.0466 0015570  62.5258 297.7543 14.93547557611294
MMS 1                   
1 40482U 15011A   25331.33336806 -.00000029  00000+0  00000+0 0  9992
2 40482  69.0878 351.7432 8532182 162.9996 230.0306  0.28352364  1361
MMS 2                   
1 40483U 15011B   25331.33336806 -.00000029  00000+0  00000+0 0  9993
2 40483  69.0857 351.7336 8533605 163.0163 229.9979  0.28352355  1364
MMS 3                   
1 40484U 15011C   25331.33336806 -.00000029  00000+0  00000+0 0  9994
2 40484  69.0898 351.7503 8533578 163.0121 229.9936  0.28352368  1366
MMS 4                   
1 40485U 15011D   25331.33336806 -.00000029  00000+0  00000+0 0  9995
2 40485  69.0890 351.7429 8534892 162.9992 230.0313  0.28352349  1361
ASTROSAT                
1 40930U 15052A   25330.22907743  .00002235  00000+0  19299-3 0  9990
2 40930   5.9955 175.7174 0007880  10.9059 349.1239 14.81951638549667
DAMPE                   
1 41173U 15078A   25331.27056031  .00001924  00000+0  68599-4 0  9991
2 41173  97.4551 330.8703 0013929  74.8376 285.4404 15.30081510553668
PISAT                   
1 41784U 16059B   25331.01309621  .00001363  00000+0  24192-3 0  9994
2 41784  97.8163 335.2721 0030367 129.5893 230.8002 14.68435935490061
HXMT (HUIYAN)           
1 42758U 17034A   25331.17715174  .00007630  00000+0  39585-3 0  9996
2 42758  43.0132 225.9774 0033690 305.4034  54.3668 15.16046417466976
FLYING LAPTOP           
1 42831U 17042G   25331.32389709  .00003624  00000+0  29725-3 0  9999
2 42831  97.4194 130.6568 0014574  97.7215 262.5664 14.99751263456187
ZHANGHENG 1-01 (CSES-1) 
1 43194U 18015C   25331.27700502  .00011357  00000+0  51125-3 0  9996
2 43194  97.6653 128.1858 0016811 271.1191  88.8118 15.21128944433956
SALSAT                  
1 46495U 20068K   25331.18890106  .00010496  00000+0  41147-3 0  9990
2 46495  97.8782 317.6282 0008825 295.7160  64.3165 15.25935156284510
IXPE                    
1 49954U 21121A   25331.33336806  .00013959  00000+0  82914-3 0  9997
2 49954   0.2302  41.1249 0007135 269.4859 171.7227 15.07707906  5745
